1 17147U 86091D   13007.08316683  .00000589  00000-0  00000+0 0  3906
2 17147 068.6459 351.1702 6217597 128.7394 332.8098 02.03988444194683
1 17153U 86019AG  13009.56774477  .00001483  00000-0  40273-3 0  4991
2 17153 098.4704 045.0122 0016259 329.5167 030.5080 14.48952142321890
1 17155U 86019AJ  13009.65577466  .00007997  00000-0  16571-2 0  6870
2 17155 099.0433 243.5340 0055669 313.7951 079.3958 14.59555033366185
1 17159U 86093A   13008.65237155  .00000045  00000-0  31984-4 0  8879
2 17159 082.9269 209.4067 0043708 078.6588 345.9926 13.72599022308596
1 17160U 86093B   13008.55354293  .00000107  00000-0  96467-4 0  9005
2 17160 082.9267 186.4475 0038459 346.0710 071.3253 13.74453976310235
1 17164U 85066G   13008.91181760  .00000118  00000-0  20151-3 0   352
2 17164 089.3883 160.4755 0203107 275.0033 233.3981 13.32217559332972
1 17168U 85094S   13009.36609326  .00001433  00000-0  50267-2 0  3725
2 17168 082.5807 300.2010 0012723 221.3035 287.3686 12.95654957273535
1 17177U 86094A   13008.88705764  .00000025  00000-0  10925-3 0  4034
2 17177 082.6080 131.9470 0003073 359.1689 148.5032 12.41545917183204
1 17178U 86094B   13009.46815580  .00000035  00000-0  18141-3 0  1304
2 17178 082.6084 126.0956 0003022 044.8892 339.6671 12.42035317183718
1 17191U 86097A   13008.89396214  .00002352  00000-0  16589-3 0  5218
2 17191 082.4993 175.3953 0010678 191.3695 168.7292 15.04497755419337
1 17192U 86097B   13009.44566882  .00000423  00000-0  49545-4 0   201
2 17192 082.5089 335.7506 0017912 042.3769 104.7977 14.82533438408608
1 17199U 86019BB  13008.71201021  .00005689  00000-0  93548-3 0  7894
2 17199 098.6750 255.4612 0044684 139.1413 254.5531 14.70357712370784
1 17203U 86019BF  13009.56633279  .00000461  00000-0  29457-3 0  1219
2 17203 099.2265 041.9047 0134729 188.8690 319.2033 14.04221592336923
1 17212U 86019BQ  13009.01515485  .00008437  00000-0  16017-2 0  2979
2 17212 098.5156 138.6607 0033394 075.0695 015.9154 14.64100564370752
1 17213U 86098A   13007.45539439 -.00000407  00000-0  00000+0 0  7458
2 17213 068.7753 020.1444 5673642 186.9574 349.7949 02.00790040190894
1 17216U 86098D   13005.22622819 -.00000240  00000-0  00000+0 0  9399
2 17216 069.5316 321.5225 5738309 155.8290 359.4455 02.04002451194236
1 17219U 86019BR  13007.41044875  .00001795  00000-0  56363-3 0  5903
2 17219 098.5036 147.3412 0044681 199.8628 193.6269 14.41169514364624
1 17233U 86019CF  13009.36617323  .00003678  00000-0  69336-3 0   483
2 17233 098.3610 123.0390 0019914 359.3268 032.5280 14.65021326378618
1 17239U 86100A   13008.92546338  .00000039  00000-0  25877-4 0  7802
2 17239 082.9333 192.9759 0033501 157.3284 311.0609 13.71852563304789
1 17240U 86100B   13007.92587346 -.00000069  00000-0 -89787-4 0  5967
2 17240 082.9318 168.6456 0030220 052.3427 056.8203 13.73835451947580
1 17241U 86101A   13009.54924126  .00000075  00000-0  54197-4 0  7515
2 17241 082.5280 226.6677 0014592 245.2074 174.7403 13.83920782316316
1 17242U 86101B   13009.58830727  .00000021  00000-0  56897-5 0  9493
2 17242 082.5283 230.2941 0013859 264.5942 151.2160 13.83226597315826
1 17253U 86026E   13001.98876653  .00000395  00000-0  13353-2 0  9520
2 17253 005.9476 242.9162 6659843 196.0532 123.1038 02.96315846198970
1 17254U 86026F   13008.54253861  .00001025  00000-0  43428-2 0  7716
2 17254 007.9929 268.1991 6738185 120.5877 149.4594 02.83463439202575
1 17255U 85056C   13002.66694661  .00000152  00000-0  69444-3 0  8801
2 17255 008.1862 153.5611 6613501 009.7152 016.4273 02.99254310193837
1 17268U 86101C   13008.66750105  .00000434  00000-0  31472-3 0  9522
2 17268 082.6136 228.8093 0027923 240.2264 180.1470 13.94213378322163
1 17269U 86101D   13008.41945736  .00000447  00000-0  36743-3 0  7621
2 17269 082.6398 332.3667 0014854 224.8662 281.8978 13.87278961315953
1 17270U 86101E   13008.33943017  .00000383  00000-0  30049-3 0  9279
2 17270 082.4352 098.1224 0002367 071.3937 355.5743 13.89660920318500
1 17271U 86101F   13009.38861726  .00000501  00000-0  34219-3 0  8939
2 17271 082.4115 334.0529 0027191 179.8724 326.4605 13.97909139325754
1 17272U 86101G   13009.76813526  .00000533  00000-0  33318-3 0  4049
2 17272 082.4911 023.7021 0013139 126.3231 233.9156 14.03004203328498
1 17273U 86101H   13008.55228355  .00000652  00000-0  39928-3 0  5110
2 17273 082.5368 056.8277 0014041 072.6569 287.6118 14.04451240329400
1 17274U 86101J   13009.26734759  .00000423  00000-0  33118-3 0  9249
2 17274 082.5269 210.5254 0031200 148.1464 212.1582 13.89807149316953
1 17290U 87001A   13008.76397399  .00000074  00000-0  52512-4 0  8540
2 17290 082.4664 081.1754 0011447 257.1436 251.8173 13.84821555314515
1 17291U 87001B   13009.58439941  .00000066  00000-0  45751-4 0  7145
2 17291 082.4672 082.0097 0010019 260.5092 208.9752 13.84514989314555
1 17295U 87003A   13008.84993272  .00002984  00000-0  20390-3 0  9471
2 17295 082.5243 289.5069 0010282 290.0526 130.5740 15.05790027414315
1 17296U 87003B   13008.82216233  .00000431  00000-0  50887-4 0  2197
2 17296 082.5307 099.2229 0020380 156.1810 353.3281 14.82206386403002
1 17303U 87006A   13008.83757431  .00000112  00000-0  48570-4 0  7120
2 17303 074.0554 242.0107 0023972 122.5318 311.5805 14.34511165358574
1 17304U 87006B   13009.63590955  .00000310  00000-0  11273-3 0  7462
2 17304 074.0581 186.4407 0029036 069.6973 357.6649 14.37085719360602
1 17316U 86019CY  13008.79652160  .00003444  00000-0  60895-3 0  1651
2 17316 098.1530 083.8732 0009525 128.4589 348.1863 14.67998653381806
1 17324U 86019DG  13009.54891656  .00064218  00000-0  31723-2 0  7311
2 17324 098.2362 209.8005 0006198 147.0010 276.5948 15.17589207387431
1 17325U 85056D   13009.09621545  .00003109  00000-0  13041-2 0  2422
2 17325 007.3645 028.1046 6575666 124.8126 339.5950 03.18626761203819
1 17328U 87008A   13008.82141654 -.00000116  00000-0 -92648-1 0  5959
2 17328 063.3993 153.0967 6836464 281.1020 300.6654 02.00566426186750
1 17333U 87008D   13008.54752957  .00000199  00000-0  38430-1 0  1019
2 17333 063.5649 207.9488 6988781 285.3341 027.0727 01.97078634186884
1 17359U 87009A   13008.71660564  .00000061  00000-0  48754-4 0  8006
2 17359 082.9231 065.8081 0032397 198.2241 310.5365 13.74300302301225
1 17360U 87009B   13008.65488023  .00000150  00000-0  13742-3 0  2684
2 17360 082.9179 035.6510 0033201 045.0931 104.7508 13.76537281303235
1 17369U 87011A   13008.37937667  .00000019  00000-0  45024-4 0  8261
2 17369 065.0131 311.0776 0019927 284.2576 222.0870 14.31246378406652
1 17423U 86019FJ  13008.63616484  .00000293  00000-0  21086-3 0  2112
2 17423 099.2786 045.8065 0177082 279.0419 228.5097 13.97733282328804
1 17425U 86010C   13009.19274297  .00001588  00000-0  65825-2 0  5871
2 17425 031.1169 014.8736 6666951 114.8337 355.6349 02.94392332150195
1 17426U 86019FM  13008.83187215  .00013290  00000-0  11287-2 0  5263
2 17426 098.0176 120.7246 0009796 298.7903 207.3795 14.97983820391337
1 17429U 86019FQ  13008.38994536  .00003121  00000-0  95136-3 0  7099
2 17429 099.1052 174.1930 0073361 278.8160 137.7126 14.41228238359805
1 17459U 86019GW  13008.95546936  .00021175  00000-0  17171-2 0  5080
2 17459 098.2367 165.2635 0009336 096.9650 024.6102 14.99666549388044
1 17478U 86019HR  13009.67334985  .00000221  00000-0  10854-3 0  5755
2 17478 098.7892 068.1872 0041434 066.4495 294.1008 14.26842221356824
1 17525U 87017A   13009.57245638  .00000017  00000-0  26097-5 0  5854
2 17525 082.9104 210.2343 0035732 276.4862 135.7530 13.73594782281820
1 17526U 87017B   13009.59164979  .00000155  00000-0  14180-3 0  8646
2 17526 082.9038 170.2511 0041134 163.2942 270.1825 13.76619851283500
1 17527U 87018A   13009.12931457  .00000058  00000-0  67377-4 0  1541
2 17527 099.1487 341.6258 0009708 075.9671 337.3799 14.02132493322399
1 17528U 87018B   13008.91023028  .00000442  00000-0  10951-3 0  9768
2 17528 097.4706 131.9028 0154446 331.7874 175.6250 14.49343574365047
1 17535U 87020A   13007.86973007 -.00000049  00000-0 -23667-3 0  3995
2 17535 073.6020 147.9496 0027491 072.0906 096.3296 12.41286369172982
1 17536U 87020B   13007.86261410 -.00000007  00000-0  77098-4 0  1230
2 17536 073.6113 145.3847 0026045 056.7207 112.1297 12.41602635137184
1 17543U 86019HX  13009.63931704  .00000211  00000-0  13814-3 0  9624
2 17543 099.0456 066.5718 0123108 346.5418 013.2476 14.09135981340465
1 17561U 87022A   13008.22184190  .00000056  00000-0  10000-3 0  7733
2 17561 014.1432 023.4783 0003290 322.4679 037.5334 00.99904024 77951
1 17563U 87022C   13009.26048218  .00027005  00000-0  32964-2 0  6622
2 17563 017.6365 033.8975 6430348 067.3501 003.9074 03.43796556215444
1 17566U 87024A   13009.23404332  .00003528  00000-0  22363-3 0  6264
2 17566 082.5279 085.2008 0006360 066.1330 346.3615 15.08639053408681
1 17567U 87024B   13009.74023509  .00000397  00000-0  46313-4 0  9305
2 17567 082.5300 273.7410 0017894 285.3969 126.2266 14.82659748396413
1 17582U 87026A   13007.88080696  .00000042  00000-0  16893-3 0  1888
2 17582 082.5705 102.9555 0012151 161.4651 316.9500 12.64867573192334
1 17583U 87026B   13009.60042963  .00000047  00000-0  19196-3 0  1891
2 17583 082.5659 084.4204 0019579 102.8585 011.8894 12.66177662193821
1 17584U 87026C   13007.86611442  .00000023  00000-0  66467-4 0  1665
2 17584 082.5729 129.4937 0001307 121.3946 025.4877 12.62593697190218
1 17585U 87026D   13009.25878258  .00000060  00000-0  27402-3 0   813
2 17585 082.5627 111.3163 0004303 193.8047 222.5537 12.63478751191197
1 17586U 87026E   13008.76240877  .00000050  00000-0  21186-3 0   844
2 17586 082.5594 088.2713 0015434 139.7502 007.7183 12.65411607192972
1 17587U 87026F   13008.78894927  .00000047  00000-0  19897-3 0   794
2 17587 082.5693 108.6207 0008771 170.7695 335.6585 12.64205451191832
1 17588U 87026G   13009.08282738 -.00000010  00000-0 -12361-3 0  9071
2 17588 082.5664 202.2641 0037203 340.3267 167.3241 12.55676556183935
